[{"OBJECT_NAME":"STARLINK-31524","OBJECT_ID":"2024-071Y","EPOCH":"2026-03-09T10:16:58.239840","MEAN_MOTION":15.27565301,"ECCENTRICITY":0.00012668,"INCLINATION":43.0057,"RA_OF_ASC_NODE":334.2763,"ARG_OF_PERICENTER":272.5503,"MEAN_ANOMALY":87.5204,"EPHEMERIS_TYPE":0,"CLASSIFICATION_TYPE":"U","NORAD_CAT_ID":59506,"ELEMENT_SET_NO":999,"REV_AT_EPOCH":10824,"BSTAR":-5.2636536e-5,"MEAN_MOTION_DOT":-1.71e-5,"MEAN_MOTION_DDOT":0},{"OBJECT_NAME":"OV1-19","OBJECT_ID":"1969-025C","EPOCH":"2026-03-09T21:47:24.425376","MEAN_MOTION":9.583977,"ECCENTRICITY":0.26774515,"INCLINATION":104.7313,"RA_OF_ASC_NODE":210.85,"ARG_OF_PERICENTER":145.6894,"MEAN_ANOMALY":235.034,"EPHEMERIS_TYPE":0,"CLASSIFICATION_TYPE":"U","NORAD_CAT_ID":3825,"ELEMENT_SET_NO":999,"REV_AT_EPOCH":97573,"BSTAR":0.0005405909,"MEAN_MOTION_DOT":1.098e-5,"MEAN_MOTION_DDOT":0}]
